[{"OBJECT_NAME":"STARLINK-33879","OBJECT_ID":"2025-083A","EPOCH":"2026-03-23T22:46:46.129728","MEAN_MOTION":15.2759725,"ECCENTRICITY":0.00015433,"INCLINATION":43.0026,"RA_OF_ASC_NODE":285.0295,"ARG_OF_PERICENTER":293.1587,"MEAN_ANOMALY":66.9102,"EPHEMERIS_TYPE":0,"CLASSIFICATION_TYPE":"U","NORAD_CAT_ID":63634,"ELEMENT_SET_NO":999,"REV_AT_EPOCH":5224,"BSTAR":0.00097386739,"MEAN_MOTION_DOT":0.00026648,"MEAN_MOTION_DDOT":0},{"OBJECT_NAME":"STARLINK-33854","OBJECT_ID":"2025-083B","EPOCH":"2026-03-23T13:54:55.790496","MEAN_MOTION":15.27571061,"ECCENTRICITY":0.0001527,"INCLINATION":43.0008,"RA_OF_ASC_NODE":286.5607,"ARG_OF_PERICENTER":292.9547,"MEAN_ANOMALY":67.1143,"EPHEMERIS_TYPE":0,"CLASSIFICATION_TYPE":"U","NORAD_CAT_ID":63635,"ELEMENT_SET_NO":999,"REV_AT_EPOCH":5219,"BSTAR":0.00075225838,"MEAN_MOTION_DOT":0.0002049,"MEAN_MOTION_DDOT":0},{"OBJECT_NAME":"STARLINK-33864","OBJECT_ID":"2025-083C","EPOCH":"2026-03-24T06:43:05.741184","MEAN_MOTION":15.27594295,"ECCENTRICITY":0.00014154,"INCLINATION":43.0026,"RA_OF_ASC_NODE":283.2112,"ARG_OF_PERICENTER":273.4647,"MEAN_ANOMALY":86.6043,"EPHEMERIS_TYPE":0,"CLASSIFICATION_TYPE":"U","NORAD_CAT_ID":63636,"ELEMENT_SET_NO":999,"REV_AT_EPOCH":5232,"BSTAR":0.0007109572,"MEAN_MOTION_DOT":0.00019362,"MEAN_MOTION_DDOT":0},{"OBJECT_NAME":"STARLINK-33832","OBJECT_ID":"2025-083D","EPOCH":"2026-03-23T23:08:45.039552","MEAN_MOTION":15.27599406,"ECCENTRICITY":0.00016965,"INCLINATION":43.0041,"RA_OF_ASC_NODE":284.2858,"ARG_OF_PERICENTER":295.9903,"MEAN_ANOMALY":64.0774,"EPHEMERIS_TYPE":0,"CLASSIFICATION_TYPE":"U","NORAD_CAT_ID":63637,"ELEMENT_SET_NO":999,"REV_AT_EPOCH":5225,"BSTAR":0.00068149059,"MEAN_MOTION_DOT":0.00018549,"MEAN_MOTION_DDOT":0},{"OBJECT_NAME":"STARLINK-33856","OBJECT_ID":"2025-083E","EPOCH":"2026-03-24T05:40:11.083296","MEAN_MOTION":15.27595394,"ECCENTRICITY":0.00015359,"INCLINATION":43.0007,"RA_OF_ASC_NODE":282.8772,"ARG_OF_PERICENTER":290.6604,"MEAN_ANOMALY":69.4083,"EPHEMERIS_TYPE":0,"CLASSIFICATION_TYPE":"U","NORAD_CAT_ID":63638,"ELEMENT_SET_NO":999,"REV_AT_EPOCH":5229,"BSTAR":0.00057985199,"MEAN_MOTION_DOT":0.00015736,"MEAN_MOTION_DDOT":0},{"OBJECT_NAME":"STARLINK-33876","OBJECT_ID":"2025-083F","EPOCH":"2026-03-24T06:02:23.239968","MEAN_MOTION":15.27587503,"ECCENTRICITY":0.0001623,"INCLINATION":42.9983,"RA_OF_ASC_NODE":282.9877,"ARG_OF_PERICENTER":257.7449,"MEAN_ANOMALY":102.3221,"EPHEMERIS_TYPE":0,"CLASSIFICATION_TYPE":"U","NORAD_CAT_ID":63639,"ELEMENT_SET_NO":999,"REV_AT_EPOCH":5229,"BSTAR":0.00058698315,"MEAN_MOTION_DOT":0.00015929,"MEAN_MOTION_DDOT":0},{"OBJECT_NAME":"STARLINK-33859","OBJECT_ID":"2025-083G","EPOCH":"2026-03-23T14:59:41.422272","MEAN_MOTION":15.27562171,"ECCENTRICITY":0.00018248,"INCLINATION":43.0017,"RA_OF_ASC_NODE":286.8987,"ARG_OF_PERICENTER":251.707,"MEAN_ANOMALY":108.3583,"EPHEMERIS_TYPE":0,"CLASSIFICATION_TYPE":"U","NORAD_CAT_ID":63640,"ELEMENT_SET_NO":999,"REV_AT_EPOCH":5219,"BSTAR":0.00055384766,"MEAN_MOTION_DOT":0.00015001,"MEAN_MOTION_DDOT":0},{"OBJECT_NAME":"STARLINK-33826","OBJECT_ID":"2025-083H","EPOCH":"2026-03-24T05:43:53.209920","MEAN_MOTION":15.27595944,"ECCENTRICITY":0.00015696,"INCLINATION":42.9987,"RA_OF_ASC_NODE":282.9009,"ARG_OF_PERICENTER":290.2983,"MEAN_ANOMALY":69.77,"EPHEMERIS_TYPE":0,"CLASSIFICATION_TYPE":"U","NORAD_CAT_ID":63641,"ELEMENT_SET_NO":999,"REV_AT_EPOCH":5229,"BSTAR":0.00069908141,"MEAN_MOTION_DOT":0.00019034,"MEAN_MOTION_DDOT":0},{"OBJECT_NAME":"STARLINK-33836","OBJECT_ID":"2025-083J","EPOCH":"2026-03-23T21:03:21.706848","MEAN_MOTION":15.27592237,"ECCENTRICITY":0.00013835,"INCLINATION":43.0027,"RA_OF_ASC_NODE":285.3506,"ARG_OF_PERICENTER":283.5928,"MEAN_ANOMALY":76.477,"EPHEMERIS_TYPE":0,"CLASSIFICATION_TYPE":"U","NORAD_CAT_ID":63642,"ELEMENT_SET_NO":999,"REV_AT_EPOCH":5223,"BSTAR":0.00081301024,"MEAN_MOTION_DOT":0.00022186,"MEAN_MOTION_DDOT":0},{"OBJECT_NAME":"STARLINK-33558","OBJECT_ID":"2025-083K","EPOCH":"2026-03-23T21:40:09.484320","MEAN_MOTION":15.2758387,"ECCENTRICITY":0.00016023,"INCLINATION":43.0011,"RA_OF_ASC_NODE":284.6794,"ARG_OF_PERICENTER":283.0858,"MEAN_ANOMALY":76.9815,"EPHEMERIS_TYPE":0,"CLASSIFICATION_TYPE":"U","NORAD_CAT_ID":63643,"ELEMENT_SET_NO":999,"REV_AT_EPOCH":5224,"BSTAR":0.00074229196,"MEAN_MOTION_DOT":0.00020223,"MEAN_MOTION_DDOT":0},{"OBJECT_NAME":"STARLINK-33852","OBJECT_ID":"2025-083L","EPOCH":"2026-03-24T06:26:26.797344","MEAN_MOTION":15.27595767,"ECCENTRICITY":0.00012611,"INCLINATION":43.0018,"RA_OF_ASC_NODE":283.1231,"ARG_OF_PERICENTER":288.9315,"MEAN_ANOMALY":71.14,"EPHEMERIS_TYPE":0,"CLASSIFICATION_TYPE":"U","NORAD_CAT_ID":63644,"ELEMENT_SET_NO":999,"REV_AT_EPOCH":5232,"BSTAR":0.00068619012,"MEAN_MOTION_DOT":0.00018677,"MEAN_MOTION_DDOT":0},{"OBJECT_NAME":"STARLINK-33835","OBJECT_ID":"2025-083M","EPOCH":"2026-03-24T06:07:55.316640","MEAN_MOTION":15.27601254,"ECCENTRICITY":0.00010924,"INCLINATION":43.002,"RA_OF_ASC_NODE":283.016,"ARG_OF_PERICENTER":273.9092,"MEAN_ANOMALY":86.1635,"EPHEMERIS_TYPE":0,"CLASSIFICATION_TYPE":"U","NORAD_CAT_ID":63645,"ELEMENT_SET_NO":999,"REV_AT_EPOCH":5232,"BSTAR":0.00077807551,"MEAN_MOTION_DOT":0.00021224,"MEAN_MOTION_DDOT":0},{"OBJECT_NAME":"STARLINK-33661","OBJECT_ID":"2025-083N","EPOCH":"2026-03-24T05:47:35.018592","MEAN_MOTION":15.27603116,"ECCENTRICITY":0.0002276,"INCLINATION":42.9991,"RA_OF_ASC_NODE":282.9097,"ARG_OF_PERICENTER":264.3413,"MEAN_ANOMALY":95.718,"EPHEMERIS_TYPE":0,"CLASSIFICATION_TYPE":"U","NORAD_CAT_ID":63646,"ELEMENT_SET_NO":999,"REV_AT_EPOCH":5232,"BSTAR":0.0010819909,"MEAN_MOTION_DOT":0.00029654,"MEAN_MOTION_DDOT":0},{"OBJECT_NAME":"STARLINK-33729","OBJECT_ID":"2025-083P","EPOCH":"2026-03-23T21:10:43.849344","MEAN_MOTION":15.2760349,"ECCENTRICITY":0.00012806,"INCLINATION":43.0041,"RA_OF_ASC_NODE":285.3873,"ARG_OF_PERICENTER":258.2069,"MEAN_ANOMALY":101.8639,"EPHEMERIS_TYPE":0,"CLASSIFICATION_TYPE":"U","NORAD_CAT_ID":63647,"ELEMENT_SET_NO":999,"REV_AT_EPOCH":5223,"BSTAR":0.0010060496,"MEAN_MOTION_DOT":0.00027545,"MEAN_MOTION_DDOT":0},{"OBJECT_NAME":"STARLINK-33717","OBJECT_ID":"2025-083Q","EPOCH":"2026-03-23T21:43:51.488256","MEAN_MOTION":15.2758613,"ECCENTRICITY":0.00022153,"INCLINATION":43.0017,"RA_OF_ASC_NODE":284.6972,"ARG_OF_PERICENTER":254.1789,"MEAN_ANOMALY":105.8818,"EPHEMERIS_TYPE":0,"CLASSIFICATION_TYPE":"U","NORAD_CAT_ID":63648,"ELEMENT_SET_NO":999,"REV_AT_EPOCH":5224,"BSTAR":0.0010063208,"MEAN_MOTION_DOT":0.00027539,"MEAN_MOTION_DDOT":0},{"OBJECT_NAME":"STARLINK-33684","OBJECT_ID":"2025-083R","EPOCH":"2026-03-23T19:58:33.081312","MEAN_MOTION":15.27613261,"ECCENTRICITY":0.00025038,"INCLINATION":43.0032,"RA_OF_ASC_NODE":285.0115,"ARG_OF_PERICENTER":272.0182,"MEAN_ANOMALY":88.0383,"EPHEMERIS_TYPE":0,"CLASSIFICATION_TYPE":"U","NORAD_CAT_ID":63649,"ELEMENT_SET_NO":999,"REV_AT_EPOCH":5223,"BSTAR":0.00065410746,"MEAN_MOTION_DOT":0.000178,"MEAN_MOTION_DDOT":0}]
