STARLINK-33879          
1 63634U 25083A   26082.94914502  .00026648  00000+0  97387-3 0  9994
2 63634  43.0026 285.0295 0001543 293.1587  66.9102 15.27597250 52248
STARLINK-33854          
1 63635U 25083B   26082.57981239  .00020490  00000+0  75226-3 0  9992
2 63635  43.0008 286.5607 0001527 292.9547  67.1143 15.27571061 52191
STARLINK-33864          
1 63636U 25083C   26083.27992756  .00019362  00000+0  71096-3 0  9994
2 63636  43.0026 283.2112 0001415 273.4647  86.6043 15.27594295 52322
STARLINK-33832          
1 63637U 25083D   26082.96441018  .00018549  00000+0  68149-3 0  9991
2 63637  43.0041 284.2858 0001696 295.9903  64.0774 15.27599406 52255
STARLINK-33856          
1 63638U 25083E   26083.23623939  .00015736  00000+0  57985-3 0  9998
2 63638  43.0007 282.8772 0001535 290.6604  69.4083 15.27595394 52297
STARLINK-33876          
1 63639U 25083F   26083.25165787  .00015929  00000+0  58698-3 0  9999
2 63639  42.9983 282.9877 0001623 257.7449 102.3221 15.27587503 52299
STARLINK-33859          
1 63640U 25083G   26082.62478498  .00015001  00000+0  55385-3 0  9998
2 63640  43.0017 286.8987 0001824 251.7070 108.3583 15.27562171 52193
STARLINK-33826          
1 63641U 25083H   26083.23881030  .00019034  00000+0  69908-3 0  9993
2 63641  42.9987 282.9009 0001569 290.2983  69.7700 15.27595944 52293
STARLINK-33836          
1 63642U 25083J   26082.87733457  .00022186  00000+0  81301-3 0  9995
2 63642  43.0027 285.3506 0001383 283.5928  76.4770 15.27592237 52236
STARLINK-33558          
1 63643U 25083K   26082.90288755  .00020223  00000+0  74229-3 0  9997
2 63643  43.0011 284.6794 0001602 283.0858  76.9815 15.27583870 52241
STARLINK-33852          
1 63644U 25083L   26083.26836571  .00018677  00000+0  68619-3 0  9999
2 63644  43.0018 283.1231 0001261 288.9315  71.1400 15.27595767 52326
STARLINK-33835          
1 63645U 25083M   26083.25550135  .00021224  00000+0  77808-3 0  9990
2 63645  43.0020 283.0160 0001092 273.9092  86.1635 15.27601254 52323
STARLINK-33661          
1 63646U 25083N   26083.24137753  .00029654  00000+0  10820-2 0  9992
2 63646  42.9991 282.9097 0002276 264.3413  95.7180 15.27603116 52322
STARLINK-33729          
1 63647U 25083P   26082.88245196  .00027545  00000+0  10060-2 0  9996
2 63647  43.0041 285.3873 0001280 258.2069 101.8639 15.27603490 52236
STARLINK-33717          
1 63648U 25083Q   26082.90545704  .00027539  00000+0  10063-2 0  9994
2 63648  43.0017 284.6972 0002215 254.1789 105.8818 15.27586130 52240
STARLINK-33684          
1 63649U 25083R   26082.83232733  .00017800  00000+0  65411-3 0  9990
2 63649  43.0032 285.0115 0002503 272.0182  88.0383 15.27613261 52232
